ORBCOMM FM20            
1 25416U 98046D   24151.98487927  .00001039  00000+0  40804-3 0  9993
2 25416  44.9932 188.6762 0002019 269.8078  90.2537 14.35310235349314
ORBCOMM FM16            
1 25417U 98046E   24152.55530987  .00001582  00000+0  58385-3 0  9999
2 25417  44.9929 181.5909 0003937 212.1603 147.9005 14.36321843349331
ORBCOMM FM15            
1 25418U 98046F   24152.44640764  .00001359  00000+0  51114-3 0  9998
2 25418  44.9960 186.2157 0003763 215.1318 144.9282 14.36038965349320
ORBCOMM FM14            
1 25419U 98046G   24152.12638741  .00001526  00000+0  56626-3 0  9995
2 25419  44.9953 186.8139 0002439 223.5736 165.6268 14.36221290349234
ORBCOMM FM13            
1 25420U 98046H   24151.13304726  .00001247  00000+0  47840-3 0  9998
2 25420  44.9968 196.4947 0003876 182.9640 177.1184 14.35479472348155
ORBCOMM FM21            
1 25475U 98053A   24152.47669248  .00001614  00000+0  60588-3 0  9999
2 25475  45.0095 274.4980 0001524 199.2075 160.8715 14.35409276342364
ORBCOMM FM22            
1 25476U 98053B   24152.44645981  .00002102  00000+0  76590-3 0  9998
2 25476  45.0077 271.8390 0002064 151.9328 208.1631 14.35954658342358
